{
    "links": {
        "self": "http://www.neowsapp.com/rest/v1/neo/3825572?api_key=iIulBulltgU6a56xZRHN4H3l9WmuAYTsLGpBGhQ2"
    },
    "id": "3825572",
    "neo_reference_id": "3825572",
    "name": "(2018 NJ1)",
    "designation": "2018 NJ1",
    "nasa_jpl_url": "http://ssd.jpl.nasa.gov/sbdb.cgi?sstr=3825572",
    "absolute_magnitude_h": 23.1,
    "estimated_diameter": {
        "kilometers": {
            "estimated_diameter_min": 0.063760979,
            "estimated_diameter_max": 0.1425738833
        },
        "meters": {
            "estimated_diameter_min": 63.7609789875,
            "estimated_diameter_max": 142.5738833281
        },
        "miles": {
            "estimated_diameter_min": 0.0396192233,
            "estimated_diameter_max": 0.0885912765
        },
        "feet": {
            "estimated_diameter_min": 209.1895703015,
            "estimated_diameter_max": 467.7620993781
        }
    },
    "is_potentially_hazardous_asteroid": false,
    "close_approach_data": [
        {
            "close_approach_date": "2018-07-06",
            "close_approach_date_full": "2018-Jul-06 04:50",
            "epoch_date_close_approach": 1530852600000,
            "relative_velocity": {
                "kilometers_per_second": "6.5479061215",
                "kilometers_per_hour": "23572.4620374741",
                "miles_per_hour": "14647.0112032294"
            },
            "miss_distance": {
                "astronomical": "0.2473849104",
                "lunar": "96.2327301456",
                "kilometers": "37008255.665980848",
                "miles": "22995863.7384697824"
            },
            "orbiting_body": "Earth"
        }
    ],
    "orbital_data": {
        "orbit_id": "5",
        "orbit_determination_date": "2018-11-26 06:29:25",
        "first_observation_date": "2018-07-08",
        "last_observation_date": "2018-07-24",
        "data_arc_in_days": 16,
        "observations_used": 20,
        "orbit_uncertainty": "8",
        "minimum_orbit_intersection": ".23304",
        "jupiter_tisserand_invariant": "3.163",
        "epoch_osculation": "2458309.5",
        "eccentricity": ".5277913157121139",
        "semi_major_axis": "2.638031683289106",
        "inclination": "10.17932245750834",
        "ascending_node_longitude": "114.4201646383119",
        "orbital_period": "1565.014759455956",
        "perihelion_distance": "1.245701470275706",
        "perihelion_argument": "165.20161678",
        "aphelion_distance": "4.030361896302506",
        "perihelion_time": "2458296.407627381913",
        "mean_anomaly": "3.011635586203532",
        "mean_motion": ".2300297794796173",
        "equinox": "J2000",
        "orbit_class": {
            "orbit_class_type": "AMO",
            "orbit_class_description": "Near-Earth asteroid orbits similar to that of 1221 Amor",
            "orbit_class_range": "1.017 AU < q (perihelion) < 1.3 AU"
        }
    },
    "is_sentry_object": false
}